NORAD_CAT_ID,OBJECT_NAME,OBJECT_TYPE,EPOCH,MEAN_MOTION,ECCENTRICITY,INCLINATION,RA_OF_ASC_NODE,ARG_OF_PERICENTER,MEAN_ANOMALY,BSTAR,MEAN_MOTION_DOT,MEAN_MOTION_DDOT,TLE_LINE0,TLE_LINE1,TLE_LINE2,SEMIMAJOR_AXIS,PERIOD,APOGEE,PERIGEE,DECAYED
50817.0,STARLINK-3341,PAYLOAD,2024-07-09 21:28:36,15.08832237,0.0001378,53.2171,17.6146,75.5476,284.5669,-5.7352e-05,-1.2e-05,0.0,0 STARLINK-3341,1 50817U 22001Q   24191.89487032 -.00001200  00000-0 -57352-4 0  9995,2 50817  53.2171  17.6146 0001378  75.5476 284.5669 15.08832237138652,6917.904,95.438,540.722,538.816,0.0
50817.0,STARLINK-3341,PAYLOAD,2024-07-10 11:47:05,15.08834292,0.0001359,53.2157,14.9403,86.141,273.9737,0.00059599,9.208e-05,0.0,0 STARLINK-3341,1 50817U 22001Q   24192.49103513  .00009208  00000-0  59599-3 0  9999,2 50817  53.2157  14.9403 0001359  86.1410 273.9737 15.08834292138748,6917.898,95.438,540.703,538.823,0.0
50817.0,STARLINK-3341,PAYLOAD,2024-07-11 11:37:52,15.08849133,0.0001177,53.2143,10.48,84.8889,275.2237,0.00055558,8.567e-05,0.0,0 STARLINK-3341,1 50817U 22001Q   24193.48463287  .00008567  00000-0  55558-3 0  9994,2 50817  53.2143  10.4800 0001177  84.8889 275.2237 15.08849133138894,6917.852,95.437,540.532,538.903,0.0
50817.0,STARLINK-3341,PAYLOAD,2024-07-11 17:59:24,15.08850025,0.0001921,53.2167,9.2894,84.6387,275.4824,0.00041642,6.347e-05,0.0,0 STARLINK-3341,1 50817U 22001Q   24193.74959388  .00006347  00000-0  41642-3 0  9998,2 50817  53.2167   9.2894 0001921  84.6387 275.4824 15.08850025140188,6917.85,95.437,541.044,538.386,0.0
50817.0,STARLINK-3341,PAYLOAD,2024-07-12 11:28:39,15.08850772,0.0002432,53.2154,6.0178,85.7152,274.4118,0.00040279,6.13e-05,0.0,0 STARLINK-3341,1 50817U 22001Q   24194.47823478  .00006130  00000-0  40279-3 0  9994,2 50817  53.2154   6.0178 0002432  85.7152 274.4118 15.08850772140290,6917.847,95.437,541.395,538.03,0.0
50817.0,STARLINK-3341,PAYLOAD,2024-07-12 17:50:12,15.08843839,0.0001651,53.2156,4.8284,89.6817,270.4364,0.00017324,2.47e-05,0.0,0 STARLINK-3341,1 50817U 22001Q   24194.74319452  .00002470  00000-0  17324-3 0  9994,2 50817  53.2156   4.8284 0001651  89.6817 270.4364 15.08843839140339,6917.869,95.437,540.876,538.592,0.0
50817.0,STARLINK-3341,PAYLOAD,2024-07-13 14:30:12,15.08844349,0.000167,53.2185,0.9616,112.7293,247.3876,0.00017562,2.508e-05,0.0,0 STARLINK-3341,1 50817U 22001Q   24195.60431526  .00002508  00000-0  17562-3 0  9993,2 50817  53.2185   0.9616 0001670 112.7293 247.3876 15.08844349139217,6917.867,95.437,540.887,538.577,0.0
50817.0,STARLINK-3341,PAYLOAD,2024-07-13 17:40:59,15.08836335,0.0001342,53.2189,0.3704,92.6747,267.4399,1.3851e-05,-6.7e-07,0.0,0 STARLINK-3341,1 50817U 22001Q   24195.73679826 -.00000067  00000-0  13851-4 0  9991,2 50817  53.2189   0.3704 0001342  92.6747 267.4399 15.08836335140489,6917.892,95.438,540.685,538.828,0.0
50817.0,STARLINK-3341,PAYLOAD,2024-07-14 14:20:59,15.08840872,0.0001503,53.2197,356.5026,122.8018,237.3119,0.0001902,2.74e-05,0.0,0 STARLINK-3341,1 50817U 22001Q   24196.59791659  .00002740  00000-0  19020-3 0  9997,2 50817  53.2197 356.5026 0001503 122.8018 237.3119 15.08840872139369,6917.878,95.437,540.782,538.703,0.0
50817.0,STARLINK-3341,PAYLOAD,2024-07-14 17:31:46,15.08842457,0.0001277,53.2183,355.9095,98.57,261.5437,0.00018492,2.657e-05,0.0,0 STARLINK-3341,1 50817U 22001Q   24196.73039673  .00002657  00000-0  18492-3 0  9993,2 50817  53.2183 355.9095 0001277  98.5700 261.5437 15.08842457139383,6917.873,95.437,540.621,538.854,0.0
50817.0,STARLINK-3341,PAYLOAD,2024-07-15 09:25:37,15.08844476,0.0001218,53.2185,352.9362,101.5797,258.5332,0.00028227,4.208e-05,0.0,0 STARLINK-3341,1 50817U 22001Q   24197.39279588  .00004208  00000-0  28227-3 0  9998,2 50817  53.2185 352.9362 0001218 101.5797 258.5332 15.08844476140739,6917.867,95.437,540.574,538.889,0.0
50817.0,STARLINK-3341,PAYLOAD,2024-07-15 14:11:46,15.0885311,0.0001341,53.2178,352.042,90.663,269.4516,-0.00040592,-6.745e-05,0.0,0 STARLINK-3341,1 50817U 22001Q   24197.59150885 -.00006745  00000-0 -40592-3 0  9997,2 50817  53.2178 352.0420 0001341  90.6630 269.4516 15.08853110139512,6917.84,95.437,540.633,538.778,0.0
50817.0,STARLINK-3341,PAYLOAD,2024-07-15 17:22:33,15.08842078,0.0001109,53.2175,351.4468,97.1052,263.0066,0.00023186,3.404e-05,0.0,0 STARLINK-3341,1 50817U 22001Q   24197.72399702  .00003404  00000-0  23186-3 0  9992,2 50817  53.2175 351.4468 0001109  97.1052 263.0066 15.08842078139539,6917.874,95.437,540.506,538.972,0.0
50817.0,STARLINK-3341,PAYLOAD,2024-07-16 14:02:34,15.08834268,0.0001288,53.2184,347.5833,88.6244,271.4896,-3.5652e-05,-8.55e-06,0.0,0 STARLINK-3341,1 50817U 22001Q   24198.58511928 -.00000855  00000-0 -35652-4 0  9994,2 50817  53.2184 347.5833 0001288  88.6244 271.4896 15.08834268139667,6917.898,95.438,540.654,538.872,0.0
50817.0,STARLINK-3341,PAYLOAD,2024-07-16 15:37:57,15.08836574,0.0001306,53.219,347.2877,89.7557,270.3585,5.6138e-06,-1.99e-06,0.0,0 STARLINK-3341,1 50817U 22001Q   24198.65135831 -.00000199  00000-0  56138-5 0  9990,2 50817  53.2190 347.2877 0001306  89.7557 270.3585 15.08836574139675,6917.891,95.438,540.659,538.852,0.0
50817.0,STARLINK-3341,PAYLOAD,2024-07-17 13:53:21,15.08823839,0.0001432,53.2201,343.1253,88.6534,271.4622,4.0887e-06,-2.23e-06,0.0,0 STARLINK-3341,1 50817U 22001Q   24199.57872348 -.00000223  00000-0  40887-5 0  9995,2 50817  53.2201 343.1253 0001432  88.6534 271.4622 15.08823839139814,6917.93,95.439,540.785,538.804,0.0
50817.0,STARLINK-3341,PAYLOAD,2024-07-17 17:04:07,15.08835196,0.0001345,53.2186,342.5297,80.5868,279.5276,0.00029594,4.424e-05,0.0,0 STARLINK-3341,1 50817U 22001Q   24199.71120223  .00004424  00000-0  29594-3 0  9995,2 50817  53.2186 342.5297 0001345  80.5868 279.5276 15.08835196141086,6917.895,95.438,540.691,538.83,0.0
50817.0,STARLINK-3341,PAYLOAD,2024-07-18 13:44:08,15.08837303,0.0001406,53.2177,338.6613,97.0135,263.1017,0.00019745,2.856e-05,0.0,0 STARLINK-3341,1 50817U 22001Q   24200.57232548  .00002856  00000-0  19745-3 0  9990,2 50817  53.2177 338.6613 0001406  97.0135 263.1017 15.08837303139960,6917.889,95.438,540.726,538.781,0.0
50817.0,STARLINK-3341,PAYLOAD,2024-07-18 16:54:55,15.08840587,0.0001526,53.2179,338.0664,68.1915,291.924,0.00049057,7.528e-05,0.0,0 STARLINK-3341,1 50817U 22001Q   24200.70480774  .00007528  00000-0  49057-3 0  9991,2 50817  53.2179 338.0664 0001526  68.1915 291.9240 15.08840587139987,6917.879,95.438,540.799,538.688,0.0
50817.0,STARLINK-3341,PAYLOAD,2024-07-19 08:48:46,15.08840649,0.0001515,53.2171,335.0941,72.1147,288.001,0.00035108,5.304e-05,0.0,0 STARLINK-3341,1 50817U 22001Q   24201.36720979  .00005304  00000-0  35108-3 0  9990,2 50817  53.2171 335.0941 0001515  72.1147 288.0010 15.08840649141337,6917.878,95.438,540.791,538.695,0.0
50817.0,STARLINK-3341,PAYLOAD,2024-07-19 15:10:19,15.08839771,0.0001288,53.2164,333.9027,98.1741,261.9397,0.00024672,3.641e-05,0.0,0 STARLINK-3341,1 50817U 22001Q   24201.63216838  .00003641  00000-0  24672-3 0  9990,2 50817  53.2164 333.9027 0001288  98.1741 261.9397 15.08839771140124,6917.881,95.438,540.637,538.855,0.0
50817.0,STARLINK-3341,PAYLOAD,2024-07-20 02:18:00,15.08858484,0.0001239,53.2177,331.8196,97.079,263.0343,0.00056491,8.719e-05,0.0,0 STARLINK-3341,1 50817U 22001Q   24202.09584073  .00008719  00000-0  56491-3 0  9995,2 50817  53.2177 331.8196 0001239  97.0790 263.0343 15.08858484141442,6917.824,95.436,540.546,538.832,0.0
50817.0,STARLINK-3341,PAYLOAD,2024-07-20 13:25:43,15.08843664,0.000162,53.2172,329.7408,82.9278,277.1898,0.00012736,1.74e-05,0.0,0 STARLINK-3341,1 50817U 22001Q   24202.55952547  .00001740  00000-0  12736-3 0  9992,2 50817  53.2172 329.7408 0001620  82.9278 277.1898 15.08843664141510,6917.869,95.437,540.855,538.613,0.0
50817.0,STARLINK-3341,PAYLOAD,2024-07-20 15:01:06,15.08846115,0.0001622,53.2176,329.4432,83.8773,276.2404,0.00017865,2.557e-05,0.0,0 STARLINK-3341,1 50817U 22001Q   24202.62576441  .00002557  00000-0  17865-3 0  9990,2 50817  53.2176 329.4432 0001622  83.8773 276.2404 15.08846115140279,6917.862,95.437,540.849,538.605,0.0
50817.0,STARLINK-3341,PAYLOAD,2024-07-21 13:16:30,15.0883628,0.0001636,53.2193,325.2785,115.9186,244.1975,-4.0455e-05,-9.32e-06,0.0,0 STARLINK-3341,1 50817U 22001Q   24203.55312683 -.00000932  00000-0 -40455-4 0  9998,2 50817  53.2193 325.2785 0001636 115.9186 244.1975 15.08836280141666,6917.892,95.438,540.889,538.625,0.0
50817.0,STARLINK-3341,PAYLOAD,2024-07-23 08:11:55,15.08839689,0.0001175,53.2172,317.2476,89.3532,270.7595,0.00018739,2.696e-05,0.0,0 STARLINK-3341,1 50817U 22001Q   24205.34160993  .00002696  00000-0  18739-3 0  9998,2 50817  53.2172 317.2476 0001175  89.3532 270.7595 15.08839689141937,6917.881,95.438,540.559,538.933,0.0
50817.0,STARLINK-3341,PAYLOAD,2024-07-23 14:33:27,15.08835695,0.0001364,53.2168,316.0586,55.7711,304.341,9.3251e-05,1.196e-05,0.0,0 STARLINK-3341,1 50817U 22001Q   24205.60657322  .00001196  00000-0  93251-4 0  9991,2 50817  53.2168 316.0586 0001364  55.7711 304.3410 15.08835695140726,6917.894,95.438,540.702,538.815,0.0
50817.0,STARLINK-3341,PAYLOAD,2024-07-24 17:35:01,15.08840825,0.0001447,53.2168,311.0032,53.8143,306.2983,8.7063e-05,1.098e-05,0.0,0 STARLINK-3341,1 50817U 22001Q   24206.73265170  .00001098  00000-0  87063-4 0  9997,2 50817  53.2168 311.0032 0001447  53.8143 306.2983 15.08840825142142,6917.878,95.438,540.744,538.742,0.0
50817.0,STARLINK-3341,PAYLOAD,2024-07-25 15:50:25,15.0883685,0.0002533,53.2198,306.8458,92.2181,267.9101,0.00012282,1.667e-05,0.0,0 STARLINK-3341,1 50817U 22001Q   24207.66002031  .00001667  00000-0  12282-3 0  9997,2 50817  53.2198 306.8458 0002533  92.2181 267.9101 15.08836850142288,6917.89,95.438,541.507,538.003,0.0
50817.0,STARLINK-3341,PAYLOAD,2024-07-25 23:47:21,15.08841257,0.0003237,53.227,305.3578,82.9525,277.1836,0.0001649,2.337e-05,0.0,0 STARLINK-3341,1 50817U 22001Q   24207.99121906  .00002337  00000-0  16490-3 0  9996,2 50817  53.2270 305.3578 0003237  82.9525 277.1836 15.08841257141088,6917.877,95.437,541.981,537.502,0.0
